[{"OBJECT_NAME":"STARLINK-35399","OBJECT_ID":"2025-232AA","EPOCH":"2026-03-09T12:05:37.811040","MEAN_MOTION":15.30208536,"ECCENTRICITY":0.00013308,"INCLINATION":53.159,"RA_OF_ASC_NODE":105.0077,"ARG_OF_PERICENTER":72.2005,"MEAN_ANOMALY":287.9141,"EPHEMERIS_TYPE":0,"CLASSIFICATION_TYPE":"U","NORAD_CAT_ID":66029,"ELEMENT_SET_NO":999,"REV_AT_EPOCH":2340,"BSTAR":0.00070610345,"MEAN_MOTION_DOT":0.00020617,"MEAN_MOTION_DDOT":0},{"OBJECT_NAME":"CZ-4B DEB","OBJECT_ID":"1999-057DZ","EPOCH":"2026-03-09T09:52:12.897696","MEAN_MOTION":15.33653758,"ECCENTRICITY":0.00127381,"INCLINATION":98.4932,"RA_OF_ASC_NODE":238.6814,"ARG_OF_PERICENTER":254.7139,"MEAN_ANOMALY":105.2693,"EPHEMERIS_TYPE":0,"CLASSIFICATION_TYPE":"U","NORAD_CAT_ID":26235,"ELEMENT_SET_NO":999,"REV_AT_EPOCH":38912,"BSTAR":0.0023807093,"MEAN_MOTION_DOT":0.00078286,"MEAN_MOTION_DDOT":0}]
